IRIDIUM 119             
1 42959U 17061E   24147.92903273  .00000133  00000+0  40559-4 0  9990
2 42959  86.3963 339.2064 0001934  82.9260 277.2155 14.34216269347132
IRIDIUM 107             
1 42960U 17061F   24147.94806427  .00000184  00000+0  58817-4 0  9999
2 42960  86.3966 339.2151 0001881  88.1810 271.9601 14.34216668347145
IRIDIUM 132             
1 42961U 17061G   24147.95441551  .00000189  00000+0  60457-4 0  9992
2 42961  86.3963 339.1971 0001839  94.3033 265.8373 14.34217147347142
IRIDIUM 136             
1 42962U 17061H   24147.91635740  .00000274  00000+0  90746-4 0  9993
2 42962  86.3965 339.2163 0002100  78.8060 281.3371 14.34220105347158
IRIDIUM 139             
1 42963U 17061J   24147.92268822  .00000134  00000+0  40883-4 0  9990
2 42963  86.3965 339.2635 0001775  91.0642 269.0757 14.34214906347167
IRIDIUM 125             
1 42964U 17061K   24147.91000883  .00000159  00000+0  49594-4 0  9996
2 42964  86.3967 339.3162 0001819  79.8292 280.3109 14.34215733347177
IRIDIUM 135             
1 43070U 17083A   24147.88416228  .00000489  00000+0  16759-3 0  9991
2 43070  86.3949 275.9739 0002481 101.3553 258.7921 14.34218187336465
IRIDIUM 138             
1 43071U 17083B   24147.90952188  .00000466  00000+0  15952-3 0  9994
2 43071  86.3938 275.6831 0002073  86.4223 273.7210 14.34213161336452
